zip,city,county,state,pop,jobs
90604,Whittier,Los Angeles,CA,42911,"1,101"
90605,Whittier,Los Angeles,CA,40192,"1,098"
90606,Whittier,Los Angeles,CA,32987,"1,094"
90640,Montebello,Los Angeles,CA,62730,"1,090"
90022,Los Angeles,Los Angeles,CA,67014,"1,087"
90650,Norwalk,Los Angeles,CA,105304,"1,084"
90241,Downey,Los Angeles,CA,43215,"1,079"
90660,Pico Rivera,Los Angeles,CA,63001,"1,075"
90621,Buena Park,Orange,CA,35598,"1,060"
90601,Whittier,Los Angeles,CA,32053,"1,060"
90706,Bellflower,Los Angeles,CA,77195,"1,060"
90631,La Habra,Orange,CA,69064,"1,052"
90201,Bell,Los Angeles,CA,101965,"1,050"
90242,Downey,Los Angeles,CA,42694,"1,048"
90255,Huntington Park,Los Angeles,CA,75019,"1,047"
91770,Rosemead,Los Angeles,CA,62703,"1,041"
91745,Hacienda Heights,Los Angeles,CA,55202,"1,040"
90023,Los Angeles,Los Angeles,CA,46680,"1,040"
90713,Lakewood,Los Angeles,CA,28202,"1,037"
91733,South El Monte,Los Angeles,CA,45365,"1,032"
90063,Los Angeles,Los Angeles,CA,53980,"1,028"
90280,South Gate,Los Angeles,CA,94642,"1,026"
92801,Anaheim,Orange,CA,66594,"1,022"
90703,Cerritos,Los Angeles,CA,50589,"1,021"
91754,Monterey Park,Los Angeles,CA,33636,"1,021"
90723,Paramount,Los Angeles,CA,54513,"1,017"
90033,Los Angeles,Los Angeles,CA,49155,"1,016"
90620,Buena Park,Orange,CA,46414,"1,011"
90262,Lynwood,Los Angeles,CA,70536,"1,004"
90032,Los Angeles,Los Angeles,CA,48031,"1,004"
91776,San Gabriel,Los Angeles,CA,38664,"1,004"
90031,Los Angeles,Los Angeles,CA,39916,"1,002"
91731,El Monte,Los Angeles,CA,30222,"1,001"
90805,Long Beach,Los Angeles,CA,95995,996
90012,Los Angeles,Los Angeles,CA,36552,995
91780,Temple City,Los Angeles,CA,35133,994
90001,Los Angeles,Los Angeles,CA,59832,989
90221,Compton,Los Angeles,CA,51688,988
90807,Long Beach,Los Angeles,CA,32202,988
90017,Los Angeles,Los Angeles,CA,27723,983
90222,Compton,Los Angeles,CA,33200,982
90002,Los Angeles,Los Angeles,CA,53302,981
90059,Los Angeles,Los Angeles,CA,46185,980
92821,Brea,Orange,CA,37712,979
90220,Compton,Los Angeles,CA,52817,976
90806,Long Beach,Los Angeles,CA,41990,976
90026,Los Angeles,Los Angeles,CA,68906,973
90011,Los Angeles,Los Angeles,CA,111165,972
91732,El Monte,Los Angeles,CA,62905,971
90007,Los Angeles,Los Angeles,CA,42433,968
90810,Long Beach,Los Angeles,CA,37251,968
90057,Los Angeles,Los Angeles,CA,50152,965
90042,Los Angeles,Los Angeles,CA,63193,964
90006,Los Angeles,Los Angeles,CA,59576,963
92804,Anaheim,Orange,CA,89915,962
90638,La Mirada,Los Angeles,CA,49227,962
91748,Rowland Heights,Los Angeles,CA,47079,959
90037,Los Angeles,Los Angeles,CA,67640,955
92805,Anaheim,Orange,CA,74478,953
90003,Los Angeles,Los Angeles,CA,73730,951
91744,La Puente,Los Angeles,CA,85421,949
90813,Long Beach,Los Angeles,CA,58380,948
90065,Los Angeles,Los Angeles,CA,46461,948
90670,Santa Fe Springs,Los Angeles,CA,16700,948
92833,Fullerton,Orange,CA,52435,946
92831,Fullerton,Orange,CA,37359,945
90808,Long Beach,Los Angeles,CA,39330,945
90044,Los Angeles,Los Angeles,CA,99443,944
90061,Los Angeles,Los Angeles,CA,27873,942
90047,Los Angeles,Los Angeles,CA,51411,939
90005,Los Angeles,Los Angeles,CA,39732,939
90680,Stanton,Orange,CA,30531,936
90043,Los Angeles,Los Angeles,CA,45873,929
90020,Los Angeles,Los Angeles,CA,39189,928
90018,Los Angeles,Los Angeles,CA,53490,927
90029,Los Angeles,Los Angeles,CA,36668,926
90301,Inglewood,Los Angeles,CA,38234,925
90004,Los Angeles,Los Angeles,CA,60541,925
90603,Whittier,Los Angeles,CA,21584,924
90602,Whittier,Los Angeles,CA,25581,924
90630,Cypress,Orange,CA,49205,922
90802,Long Beach,Los Angeles,CA,38962,917
90040,Los Angeles,Los Angeles,CA,12328,915
91790,West Covina,Los Angeles,CA,45444,912
91801,Alhambra,Los Angeles,CA,54768,912
91706,Baldwin Park,Los Angeles,CA,76930,911
91007,Arcadia,Los Angeles,CA,34116,909
90744,Wilmington,Los Angeles,CA,56880,909
90240,Downey,Los Angeles,CA,26413,909
90247,Gardena,Los Angeles,CA,48293,908
90028,Los Angeles,Los Angeles,CA,29774,907
92802,Anaheim,Orange,CA,42016,904
90815,Long Beach,Los Angeles,CA,41312,902
90745,Carson,Los Angeles,CA,56930,902
90270,Maywood,Los Angeles,CA,27287,902
91803,Alhambra,Los Angeles,CA,29567,902
90804,Long Beach,Los Angeles,CA,39239,900
90027,Los Angeles,Los Angeles,CA,44770,900
90016,Los Angeles,Los Angeles,CA,45899,895
91205,Glendale,Los Angeles,CA,37638,894
90019,Los Angeles,Los Angeles,CA,64534,893
90701,Artesia,Los Angeles,CA,16801,892
90038,Los Angeles,Los Angeles,CA,28580,891
90712,Lakewood,Los Angeles,CA,31217,890
90036,Los Angeles,Los Angeles,CA,37965,888
90302,Inglewood,Los Angeles,CA,30017,887
91104,Pasadena,Los Angeles,CA,37874,885
91755,Monterey Park,Los Angeles,CA,26803,885
91103,Pasadena,Los Angeles,CA,27659,884
91746,La Puente,Los Angeles,CA,29709,883
92840,Garden Grove,Orange,CA,54735,881
90250,Hawthorne,Los Angeles,CA,97072,879
91206,Glendale,Los Angeles,CA,34739,877
90716,Hawaiian Gardens,Los Angeles,CA,14285,869
90623,La Palma,Orange,CA,15662,867
90715,Lakewood,Los Angeles,CA,20256,867
90013,Los Angeles,Los Angeles,CA,12559,860
90089,Los Angeles,Los Angeles,CA,3786,859
91789,Walnut,Los Angeles,CA,44440,858
90014,Los Angeles,Los Angeles,CA,8688,857
92832,Fullerton,Orange,CA,25837,856
90803,Long Beach,Los Angeles,CA,32126,855
92835,Fullerton,Orange,CA,23528,854
91006,Arcadia,Los Angeles,CA,32958,851
92806,Anaheim,Orange,CA,39442,850
90045,Los Angeles,Los Angeles,CA,40567,850
91108,San Marino,Los Angeles,CA,13375,850
91775,San Gabriel,Los Angeles,CA,25004,850
91030,South Pasadena,Los Angeles,CA,25637,848
90034,Los Angeles,Los Angeles,CA,53861,847
90041,Los Angeles,Los Angeles,CA,29090,847
90501,Torrance,Los Angeles,CA,41975,841
90015,Los Angeles,Los Angeles,CA,22651,839
92870,Placentia,Orange,CA,53600,837
91001,Altadena,Los Angeles,CA,37818,833
90046,Los Angeles,Los Angeles,CA,50900,832
91791,West Covina,Los Angeles,CA,33397,831
90066,Los Angeles,Los Angeles,CA,59167,826
91105,Pasadena,Los Angeles,CA,12617,824
91765,Diamond Bar,Los Angeles,CA,46593,822
90405,Santa Monica,Los Angeles,CA,28156,822
91604,Studio City,Los Angeles,CA,32910,816
91601,North Hollywood,Los Angeles,CA,36841,813
90025,Los Angeles,Los Angeles,CA,46883,810
91106,Pasadena,Los Angeles,CA,25543,810
90024,Los Angeles,Los Angeles,CA,51627,805
91204,Glendale,Los Angeles,CA,18723,805
91792,West Covina,Los Angeles,CA,29619,805
92867,Orange,Orange,CA,44655,804
90010,Los Angeles,Los Angeles,CA,3822,803
91607,Valley Village,Los Angeles,CA,30611,801
90710,Harbor City,Los Angeles,CA,28045,799
91101,Pasadena,Los Angeles,CA,21395,797
90305,Inglewood,Los Angeles,CA,15042,795
91423,Sherman Oaks,Los Angeles,CA,33172,789
92683,Westminster,Orange,CA,91105,788
91606,North Hollywood,Los Angeles,CA,44295,788
91722,Covina,Los Angeles,CA,34631,787
90720,Los Alamitos,Orange,CA,22261,787
91203,Glendale,Los Angeles,CA,15410,784
91207,Glendale,Los Angeles,CA,11031,783
90266,Manhattan Beach,Los Angeles,CA,35500,782
90746,Carson,Los Angeles,CA,27075,782
92843,Garden Grove,Orange,CA,46873,781
90303,Inglewood,Los Angeles,CA,24374,781
90260,Lawndale,Los Angeles,CA,34827,781
91214,La Crescenta,Los Angeles,CA,30787,777
90211,Beverly Hills,Los Angeles,CA,8019,775
91401,Van Nuys,Los Angeles,CA,39755,774
90230,Culver City,Los Angeles,CA,32687,774
91016,Monrovia,Los Angeles,CA,41105,773
91505,Burbank,Los Angeles,CA,30902,772
92706,Santa Ana,Orange,CA,35748,770
90278,Redondo Beach,Los Angeles,CA,40252,769
90731,San Pedro,Los Angeles,CA,60659,768
90056,Los Angeles,Los Angeles,CA,7649,767
90248,Gardena,Los Angeles,CA,11607,767
92845,Garden Grove,Orange,CA,16273,766
91024,Sierra Madre,Los Angeles,CA,10932,766
90069,West Hollywood,Los Angeles,CA,20230,766
90212,Beverly Hills,Los Angeles,CA,13314,766
92886,Yorba Linda,Orange,CA,50784,765
90503,Torrance,Los Angeles,CA,44605,765
91208,Glendale,Los Angeles,CA,15860,764
92823,Brea,Orange,CA,4872,762
90232,Culver City,Los Angeles,CA,14780,761
91352,Sun Valley,Los Angeles,CA,47076,760
90048,Los Angeles,Los Angeles,CA,21489,757
91605,North Hollywood,Los Angeles,CA,53113,755
91502,Burbank,Los Angeles,CA,10708,754
90249,Gardena,Los Angeles,CA,26429,754
91405,Van Nuys,Los Angeles,CA,55506,752
90035,Los Angeles,Los Angeles,CA,27272,747
90068,Los Angeles,Los Angeles,CA,21092,746
91020,Montrose,Los Angeles,CA,8633,745
91506,Burbank,Los Angeles,CA,18591,744
91602,North Hollywood,Los Angeles,CA,19672,744
91202,Glendale,Los Angeles,CA,23345,744
91011,La Canada Flintridge,Los Angeles,CA,20301,743
90814,Long Beach,Los Angeles,CA,19685,743
90094,Los Angeles,Los Angeles,CA,9827,740
90304,Inglewood,Los Angeles,CA,25946,739
92865,Orange,Orange,CA,20664,736
91402,Panorama City,Los Angeles,CA,72059,735
91316,Encino,Los Angeles,CA,30499,734
90505,Torrance,Los Angeles,CA,37220,734
90293,Playa Del Rey,Los Angeles,CA,12728,730
90077,Los Angeles,Los Angeles,CA,8382,727
07114,Newark,Essex,NJ,12024,727
91201,Glendale,Los Angeles,CA,23281,726
90064,Los Angeles,Los Angeles,CA,25925,725
92861,Villa Park,Orange,CA,5822,724
90049,Los Angeles,Los Angeles,CA,36418,724
92701,Santa Ana,Orange,CA,55058,723
90740,Seal Beach,Orange,CA,24307,721
90401,Santa Monica,Los Angeles,CA,7111,719
92807,Anaheim,Orange,CA,35687,718
92703,Santa Ana,Orange,CA,69112,716
91331,Pacoima,Los Angeles,CA,105458,716
07657,Ridgefield,Bergen,NJ,11227,716
91501,Burbank,Los Angeles,CA,20511,715
07643,Little Ferry,Bergen,NJ,10782,715
92844,Garden Grove,Orange,CA,23189,714
90277,Redondo Beach,Los Angeles,CA,34827,714
90404,Santa Monica,Los Angeles,CA,22929,714
91406,Van Nuys,Los Angeles,CA,54890,713
90245,El Segundo,Los Angeles,CA,16731,712
91436,Encino,Los Angeles,CA,15292,711
90291,Venice,Los Angeles,CA,26950,711
90292,Marina Del Rey,Los Angeles,CA,23549,710
90210,Beverly Hills,Los Angeles,CA,19314,709
07632,Englewood Cliffs,Bergen,NJ,5453,709
92647,Huntington Beach,Orange,CA,62199,708
90502,Torrance,Los Angeles,CA,17778,708
07073,East Rutherford,Bergen,NJ,9584,705
91723,Covina,Los Angeles,CA,18521,704
07605,Leonia,Bergen,NJ,9086,704
07057,Wallington,Bergen,NJ,11540,702
07072,Carlstadt,Bergen,NJ,6178,701
91702,Azusa,Los Angeles,CA,62066,700
07603,Bogota,Bergen,NJ,8360,699
90402,Santa Monica,Los Angeles,CA,11882,698
92869,Orange,Orange,CA,36846,697
92868,Orange,Orange,CA,27072,697
07075,Wood Ridge,Bergen,NJ,8769,696
07626,Cresskill,Bergen,NJ,8699,695
91403,Sherman Oaks,Los Angeles,CA,25156,694
07661,River Edge,Bergen,NJ,11500,694
90403,Santa Monica,Los Angeles,CA,23902,692
07607,Maywood,Bergen,NJ,9661,692
07604,Hasbrouck Heights,Bergen,NJ,12082,691
91343,North Hills,Los Angeles,CA,66743,685
07014,Clifton,Passaic,NJ,5300,685
92866,Orange,Orange,CA,15574,684
92655,Midway City,Orange,CA,8382,684
91504,Burbank,Los Angeles,CA,26749,683
92780,Tustin,Orange,CA,59499,682
91356,Tarzana,Los Angeles,CA,29822,679
91411,Van Nuys,Los Angeles,CA,26111,678
07627,Demarest,Bergen,NJ,4942,678
07504,Paterson,Passaic,NJ,11578,674
92708,Fountain Valley,Orange,CA,56953,673
92808,Anaheim,Orange,CA,20483,672
07662,Rochelle Park,Bergen,NJ,5597,672
07641,Haworth,Bergen,NJ,3418,670
92887,Yorba Linda,Orange,CA,20012,668
07028,Glen Ridge,Essex,NJ,7724,667
91340,San Fernando,Los Angeles,CA,36156,666
07649,Oradell,Bergen,NJ,8141,666
91335,Reseda,Los Angeles,CA,81824,663
07630,Emerson,Bergen,NJ,7596,662
91010,Duarte,Los Angeles,CA,26380,661
90272,Pacific Palisades,Los Angeles,CA,21629,660
07624,Closter,Bergen,NJ,8565,660
91040,Sunland,Los Angeles,CA,20049,656
07064,Port Reading,Middlesex,NJ,3864,656
92704,Santa Ana,Orange,CA,88321,653
07041,Millburn,Essex,NJ,6770,651
91724,Covina,Los Angeles,CA,26717,650
91042,Tujunga,Los Angeles,CA,26966,650
91768,Pomona,Los Angeles,CA,35191,644
07452,Glen Rock,Bergen,NJ,11780,644
07033,Kenilworth,Union,NJ,8161,638
07640,Harrington Park,Bergen,NJ,4753,636
91342,Sylmar,Los Angeles,CA,94595,635
07068,Roseland,Essex,NJ,5834,633
92648,Huntington Beach,Orange,CA,46228,629
07648,Norwood,Bergen,NJ,5812,628
90254,Hermosa Beach,Los Angeles,CA,19539,625
92705,Santa Ana,Orange,CA,47298,623
90275,Rancho Palos Verdes,Los Angeles,CA,42146,623
07512,Totowa,Passaic,NJ,10828,623
92880,Corona,Riverside,CA,69656,622
07676,Township Of Washington,Bergen,NJ,9207,618
07642,Hillsdale,Bergen,NJ,10317,616
91345,Mission Hills,Los Angeles,CA,19145,614
07027,Garwood,Union,NJ,4338,613
92646,Huntington Beach,Orange,CA,55870,610
91344,Granada Hills,Los Angeles,CA,53613,610
91325,Northridge,Los Angeles,CA,34575,610
91306,Winnetka,Los Angeles,CA,49678,608
92707,Santa Ana,Orange,CA,60831,606
07647,Northvale,Bergen,NJ,5487,603
91324,Northridge,Los Angeles,CA,29670,602
90717,Lomita,Los Angeles,CA,21508,602
07092,Mountainside,Union,NJ,6890,599
91766,Pomona,Los Angeles,CA,72348,596
91740,Glendora,Los Angeles,CA,25877,595
91364,Woodland Hills,Los Angeles,CA,27971,593
90290,Topanga,Los Angeles,CA,5681,593
07936,East Hanover,Morris,NJ,11072,591
92604,Irvine,Orange,CA,28990,588
90732,San Pedro,Los Angeles,CA,22780,586
07423,Ho Ho Kus,Bergen,NJ,4094,584
07023,Fanwood,Union,NJ,7660,576
07932,Florham Park,Morris,NJ,9902,576
92782,Tustin,Orange,CA,23084,575
91367,Woodland Hills,Los Angeles,CA,45970,570
92602,Irvine,Orange,CA,23238,569
08863,Fords,Middlesex,NJ,12094,569
07004,Fairfield,Essex,NJ,7390,568
07463,Waldwick,Bergen,NJ,9986,567
07432,Midland Park,Bergen,NJ,7244,563
92881,Corona,Riverside,CA,33531,560
92627,Costa Mesa,Orange,CA,63161,559
07677,Woodcliff Lake,Bergen,NJ,5832,557
07656,Park Ridge,Bergen,NJ,8795,554
92620,Irvine,Orange,CA,52569,553
91767,Pomona,Los Angeles,CA,50606,551
92882,Corona,Riverside,CA,73250,549
92660,Newport Beach,Orange,CA,35446,545
07645,Montvale,Bergen,NJ,8489,541
07058,Pine Brook,Morris,NJ,5109,541
91741,Glendora,Los Angeles,CA,26794,540
91326,Northridge,Los Angeles,CA,36339,540
91303,Canoga Park,Los Angeles,CA,31586,540
91311,Chatsworth,Los Angeles,CA,40839,536
91710,Chino,San Bernardino,CA,91773,531
07922,Berkeley Heights,Union,NJ,12314,530
92612,Irvine,Orange,CA,33234,529
07417,Franklin Lakes,Bergen,NJ,10946,529
07401,Allendale,Bergen,NJ,6765,529
91304,Canoga Park,Los Angeles,CA,54361,527
92606,Irvine,Orange,CA,26171,524
07758,Port Monmouth,Monmouth,NJ,4528,520
92860,Norco,Riverside,CA,26849,518
91750,La Verne,Los Angeles,CA,34129,517
91302,Calabasas,Los Angeles,CA,26712,517
07440,Pequannock,Morris,NJ,4469,515
07035,Lincoln Park,Morris,NJ,10487,512
98166,Seattle,King,WA,21452,512
98146,Seattle,King,WA,27780,511
75006,Carrollton,Dallas,TX,51642,510
90274,Palos Verdes Peninsula,Los Angeles,CA,25061,506
98178,Seattle,King,WA,27335,506
98136,Seattle,King,WA,16997,503
98106,Seattle,King,WA,25940,503
98108,Seattle,King,WA,23639,503
07444,Pompton Plains,Morris,NJ,10722,502
07981,Whippany,Morris,NJ,9051,502
98056,Renton,King,WA,35722,501
91709,Chino Hills,San Bernardino,CA,80701,500
98126,Seattle,King,WA,23646,500
07718,Belford,Monmouth,NJ,7093,500
98116,Seattle,King,WA,27338,497
07034,Lake Hiawatha,Morris,NJ,9143,497
07458,Saddle River,Bergen,NJ,11467,496
92614,Irvine,Orange,CA,27187,495
60521,Hinsdale,Du Page,IL,18415,492
07442,Pompton Lakes,Passaic,NJ,11029,492
07045,Montville,Morris,NJ,10670,492
98040,Mercer Island,King,WA,25675,491
75063,Irving,Dallas,TX,40048,491
98144,Seattle,King,WA,32439,490
07737,Leonardo,Monmouth,NJ,4032,488
98148,Seattle,King,WA,12149,487
75234,Dallas,Dallas,TX,37160,487
98057,Renton,King,WA,12822,486
07082,Towaco,Morris,NJ,5011,485
98055,Renton,King,WA,24332,484
60104,Bellwood,Cook,IL,18904,483
75039,Irving,Dallas,TX,20108,483
91763,Montclair,San Bernardino,CA,38863,482
75244,Dallas,Dallas,TX,13254,482
92883,Corona,Riverside,CA,35933,481
60558,Western Springs,Cook,IL,13272,481
60513,Brookfield,Cook,IL,18753,481
60154,Westchester,Cook,IL,16440,481
75229,Dallas,Dallas,TX,32322,481
75038,Irving,Dallas,TX,29990,481
60523,Oak Brook,Du Page,IL,10081,480
75001,Addison,Dallas,TX,14992,478
60526,La Grange Park,Cook,IL,13451,477
75062,Irving,Dallas,TX,49306,477
60148,Lombard,Du Page,IL,52588,476
75019,Coppell,Dallas,TX,42888,475
60525,La Grange,Cook,IL,30474,475
60163,Berkeley,Cook,IL,5103,474
60162,Hillside,Cook,IL,8176,474
60514,Clarendon Hills,Du Page,IL,9943,472
75007,Carrollton,Denton,TX,55500,472
98104,Seattle,King,WA,14522,471
75220,Dallas,Dallas,TX,42009,471
98004,Bellevue,King,WA,36202,471
60546,Riverside,Cook,IL,15405,470
92679,Trabuco Canyon,Orange,CA,32657,468
60165,Stone Park,Cook,IL,4894,468
60155,Broadview,Cook,IL,7755,467
98112,Seattle,King,WA,25474,466
98059,Renton,King,WA,38959,466
75010,Carrollton,Denton,TX,30406,466
60527,Willowbrook,Du Page,IL,28534,466
60559,Westmont,Du Page,IL,24384,465
92879,Corona,Riverside,CA,47872,464
98119,Seattle,King,WA,26322,464
98102,Seattle,King,WA,26023,464
60126,Elmhurst,Du Page,IL,49027,464
92663,Newport Beach,Orange,CA,21951,463
60534,Lyons,Cook,IL,10452,463
98109,Seattle,King,WA,30384,462
60181,Villa Park,Du Page,IL,28755,462
98005,Bellevue,King,WA,19223,461
98101,Seattle,King,WA,13492,461
76051,Grapevine,Tarrant,TX,53291,461
60191,Wood Dale,Du Page,IL,14021,460
60153,Maywood,Cook,IL,23578,460
75287,Dallas,Dallas,TX,55673,460
98121,Seattle,King,WA,19494,459
98168,Seattle,King,WA,33401,459
60515,Downers Grove,Du Page,IL,28290,459
60458,Justice,Cook,IL,15197,459
60160,Melrose Park,Cook,IL,25666,459
60139,Glendale Heights,Du Page,IL,34160,459
91762,Ontario,San Bernardino,CA,61718,458
92610,Foothill Ranch,Orange,CA,16360,458
91711,Claremont,Los Angeles,CA,36777,458
98070,Vashon,King,WA,10291,458
07716,Atlantic Highlands,Monmouth,NJ,8142,458
98188,Seattle,King,WA,25175,457
60137,Glen Ellyn,Du Page,IL,37760,457
60131,Franklin Park,Cook,IL,17834,457
75235,Dallas,Dallas,TX,18429,457
92661,Newport Beach,Orange,CA,3445,456
60143,Itasca,Du Page,IL,11222,456
60501,Summit Argo,Cook,IL,11874,455
19131,Philadelphia,Philadelphia,PA,44723,455
07069,Watchung,Somerset,NJ,6191,455
19111,Philadelphia,Philadelphia,PA,68113,454
75061,Irving,Dallas,TX,54520,454
19152,Philadelphia,Philadelphia,PA,36379,452
07457,Riverdale,Morris,NJ,4197,452
98199,Seattle,King,WA,22720,451
60164,Melrose Park,Cook,IL,21228,451
98103,Seattle,King,WA,53163,451
19139,Philadelphia,Philadelphia,PA,46397,450
98007,Bellevue,King,WA,29322,450
19104,Philadelphia,Philadelphia,PA,53560,449
19151,Philadelphia,Philadelphia,PA,33343,449
60480,Willow Springs,Cook,IL,5151,448
75211,Dallas,Dallas,TX,77570,448
60402,Berwyn,Cook,IL,62960,447
19149,Philadelphia,Philadelphia,PA,58055,447
98118,Seattle,King,WA,49181,446
60130,Forest Park,Cook,IL,13927,446
60561,Darien,Du Page,IL,22955,446
60101,Addison,Du Page,IL,38856,446
60108,Bloomingdale,Du Page,IL,22494,445
75230,Dallas,Dallas,TX,27489,445
60455,Bridgeview,Cook,IL,16144,444
19128,Philadelphia,Philadelphia,PA,37644,444
75248,Dallas,Dallas,TX,37373,444
20816,Bethesda,Montgomery,MD,16316,443
19154,Philadelphia,Philadelphia,PA,35098,443
19132,Philadelphia,Philadelphia,PA,31378,443
75225,Dallas,Dallas,TX,21736,443
92625,Corona Del Mar,Orange,CA,12394,442
60304,Oak Park,Cook,IL,17782,442
19136,Philadelphia,Philadelphia,PA,34741,442
75057,Lewisville,Denton,TX,14960,442
60106,Bensenville,Du Page,IL,20341,442
75209,Dallas,Dallas,TX,14308,442
92653,Laguna Hills,Orange,CA,30012,441
92603,Irvine,Orange,CA,19558,441
98033,Kirkland,King,WA,39939,441
98032,Kent,King,WA,39074,441
60305,River Forest,Cook,IL,10970,441
60171,River Grove,Cook,IL,10076,441
60007,Elk Grove Village,Cook,IL,33161,441
60457,Hickory Hills,Cook,IL,13816,441
19143,Philadelphia,Philadelphia,PA,64630,441
75077,Lewisville,Denton,TX,37102,441
76155,Fort Worth,Tarrant,TX,5813,441
60176,Schiller Park,Cook,IL,11621,440
75254,Dallas,Dallas,TX,26929,440
19135,Philadelphia,Philadelphia,PA,35427,439
19115,Philadelphia,Philadelphia,PA,35346,439
75240,Dallas,Dallas,TX,28534,439
60172,Roselle,Du Page,IL,24371,438
19146,Philadelphia,Philadelphia,PA,39282,438
19140,Philadelphia,Philadelphia,PA,51766,438
22043,Falls Church,Fairfax,VI,24806,437
98008,Bellevue,King,WA,25719,437
19116,Philadelphia,Philadelphia,PA,34747,437
19138,Philadelphia,Philadelphia,PA,32766,437
75219,Dallas,Dallas,TX,25120,437
98006,Bellevue,King,WA,37871,436
98198,Seattle,King,WA,37966,436
19147,Philadelphia,Philadelphia,PA,38472,436
22046,Falls Church,Falls Church City,VI,18698,435
19124,Philadelphia,Philadelphia,PA,70304,435
19114,Philadelphia,Philadelphia,PA,31668,435
60804,Cicero,Cook,IL,82383,435
19120,Philadelphia,Philadelphia,PA,74060,435
19144,Philadelphia,Philadelphia,PA,43884,435
19038,Glenside,Montgomery,PA,31415,435
98117,Seattle,King,WA,35645,435
22042,Falls Church,Fairfax,VI,35174,434
22205,Arlington,Arlington,VI,18982,434
60532,Lisle,Du Page,IL,27956,434
19145,Philadelphia,Philadelphia,PA,46052,434
19148,Philadelphia,Philadelphia,PA,52259,434
19082,Upper Darby,Delaware,PA,41741,434
19119,Philadelphia,Philadelphia,PA,28192,434
98107,Seattle,King,WA,27534,433
60707,Elmwood Park,Cook,IL,43093,433
60638,Chicago,Cook,IL,58669,433
75212,Dallas,Dallas,TX,26720,433
60187,Wheaton,Du Page,IL,29976,432
60005,Arlington Heights,Cook,IL,30079,432
75060,Irving,Dallas,TX,47764,432
22209,Arlington,Arlington,VI,13227,431
98031,Kent,King,WA,37850,431
60008,Rolling Meadows,Cook,IL,21663,431
19141,Philadelphia,Philadelphia,PA,34701,431
22203,Arlington,Arlington,VI,24309,430
22044,Falls Church,Fairfax,VI,13616,430
22213,Arlington,Arlington,VI,3713,430
19103,Philadelphia,Philadelphia,PA,24214,429
60644,Chicago,Cook,IL,46591,429
20817,Bethesda,Montgomery,MD,37315,428
19134,Philadelphia,Philadelphia,PA,62087,428
22201,Arlington,Arlington,VI,38541,427
19050,Lansdowne,Delaware,PA,27976,427
75201,Dallas,Dallas,TX,17476,427
07732,Highlands,Monmouth,NJ,4868,427
19142,Philadelphia,Philadelphia,PA,29078,426
19072,Narberth,Montgomery,PA,9802,426
22207,Arlington,Arlington,VI,33170,425
22204,Arlington,Arlington,VI,54617,425
75231,Dallas,Dallas,TX,40371,425
19004,Bala Cynwyd,Montgomery,PA,9524,425
22041,Falls Church,Fairfax,VI,28429,424
98105,Seattle,King,WA,50434,424
60173,Schaumburg,Cook,IL,12610,424
60465,Palos Hills,Cook,IL,17345,424
60634,Chicago,Cook,IL,75082,424
60623,Chicago,Cook,IL,81283,424
75093,Plano,Collin,TX,46788,424
19107,Philadelphia,Philadelphia,PA,14526,424
19066,Merion Station,Montgomery,PA,5662,424
22101,Mc Lean,Fairfax,VI,29892,423
19083,Havertown,Delaware,PA,36633,423
18966,Southampton,Bucks,PA,37739,422
19001,Abington,Montgomery,PA,17139,422
22311,Alexandria,Alexandria City,VI,19002,421
98028,Kenmore,King,WA,22738,421
20905,Silver Spring,Montgomery,MD,18662,421
75252,Dallas,Dallas,TX,26867,421
19003,Ardmore,Delaware,PA,13427,421
75204,Dallas,Dallas,TX,30537,421
75206,Dallas,Dallas,TX,39010,421
01760,Natick,Middlesex,MA,35761,421
20851,Rockville,Montgomery,MD,15489,420
60056,Mount Prospect,Cook,IL,54524,420
60016,Des Plaines,Cook,IL,59291,420
75243,Dallas,Dallas,TX,68308,420
75054,Grand Prairie,Dallas,TX,11927,420
22031,Fairfax,Fairfax City,VI,33379,420
98110,Bainbridge Island,Kitsap,WA,24486,419
19020,Bensalem,Bucks,PA,54985,419
60517,Woodridge,Du Page,IL,32390,419
19102,Philadelphia,Philadelphia,PA,5147,419
75205,Dallas,Dallas,TX,24877,419
60631,Chicago,Cook,IL,29529,419
22312,Alexandria,Fairfax,VI,32566,418
20815,Chevy Chase,Montgomery,MD,30664,418
20712,Mount Rainier,Prince Georges,MD,9608,418
98115,Seattle,King,WA,54109,418
92630,Lake Forest,Orange,CA,59403,417
98122,Seattle,King,WA,39305,417
19026,Drexel Hill,Delaware,PA,30573,417
19130,Philadelphia,Philadelphia,PA,27093,417
19150,Philadelphia,Philadelphia,PA,22299,417
98155,Seattle,King,WA,35041,416
20722,Brentwood,Prince Georges,MD,5728,416
98177,Seattle,King,WA,20676,416
19046,Jenkintown,Montgomery,PA,17660,416
19041,Haverford,Delaware,PA,6494,416
20901,Silver Spring,Montgomery,MD,36278,416
22003,Annandale,Fairfax,VI,59375,415
22202,Arlington,Arlington,VI,25409,415
98011,Bothell,King,WA,33830,415
60004,Arlington Heights,Cook,IL,50639,415
60651,Chicago,Cook,IL,63492,415
19023,Darby,Delaware,PA,22088,415
19096,Wynnewood,Montgomery,PA,13695,415
98021,Bothell,Snohomish,WA,31496,415
91307,West Hills,Los Angeles,CA,26341,414
22182,Vienna,Fairfax,VI,26124,414
22304,Alexandria,Alexandria City,VI,48510,414
20814,Bethesda,Montgomery,MD,29021,414
20742,College Park,Prince Georges,MD,6726,414
98058,Renton,King,WA,43740,414
60189,Wheaton,Du Page,IL,29999,414
60706,Harwood Heights,Cook,IL,23114,414
60639,Chicago,Cook,IL,88204,414
19064,Springfield,Delaware,PA,24664,414
19129,Philadelphia,Philadelphia,PA,11275,414
91786,Upland,San Bernardino,CA,53697,413
92657,Newport Coast,Orange,CA,9802,413
98075,Sammamish,King,WA,23996,413
60302,Oak Park,Cook,IL,31620,413
60068,Park Ridge,Cook,IL,37433,413
60459,Burbank,Cook,IL,28709,413
19428,Conshohocken,Montgomery,PA,17222,413
19010,Bryn Mawr,Delaware,PA,21572,413
19127,Philadelphia,Philadelphia,PA,5760,413
76039,Euless,Tarrant,TX,36087,413
22151,Springfield,Fairfax,VI,17917,412
22180,Vienna,Fairfax,VI,24366,412
20770,Greenbelt,Prince Georges,MD,24560,412
60612,Chicago,Cook,IL,33735,412
22302,Alexandria,Alexandria City,VI,17566,411
22206,Arlington,Arlington,VI,20508,411
20903,Silver Spring,Montgomery,MD,27973,411
20866,Burtonsville,Montgomery,MD,16365,411
19087,Wayne,Delaware,PA,32765,411
76034,Colleyville,Tarrant,TX,26418,411
22124,Oakton,Fairfax,VI,18530,410
22305,Alexandria,Alexandria City,VI,18579,410
22181,Vienna,Fairfax,VI,15350,410
20737,Riverdale,Prince Georges,MD,22295,410
60656,Chicago,Cook,IL,28218,410
60624,Chicago,Cook,IL,34892,410
19133,Philadelphia,Philadelphia,PA,27102,410
19006,Huntingdon Valley,Montgomery,PA,21899,410
75080,Richardson,Dallas,TX,52531,410
98074,Sammamish,King,WA,28775,409
98034,Kirkland,King,WA,43471,409
20710,Bladensburg,Prince Georges,MD,9553,409
19053,Feasterville Trevose,Bucks,PA,26293,409
60415,Chicago Ridge,Cook,IL,14123,409
98042,Kent,King,WA,48572,408
20782,Hyattsville,Prince Georges,MD,33398,408
19118,Philadelphia,Philadelphia,PA,10884,408
76092,Southlake,Tarrant,TX,31424,408
80003,Arvada,Jefferson,CO,36480,408
22301,Alexandria,Alexandria City,VI,13377,407
20781,Hyattsville,Prince Georges,MD,11694,407
19122,Philadelphia,Philadelphia,PA,21666,407
19090,Willow Grove,Montgomery,PA,18357,407
80031,Westminster,Adams,CO,35741,407
22102,Mc Lean,Fairfax,VI,25627,406
20912,Takoma Park,Montgomery,MD,26140,406
20740,College Park,Prince Georges,MD,31349,406
75028,Flower Mound,Denton,TX,47804,406
98053,Redmond,King,WA,21993,405
98043,Mountlake Terrace,Snohomish,WA,21210,405
60018,Des Plaines,Cook,IL,30037,405
02054,Millis,Norfolk,MA,8233,405
92637,Laguna Hills,Orange,CA,16053,404
94542,Hayward,Alameda,CA,14699,404
18974,Warminster,Bucks,PA,40543,404
19027,Elkins Park,Montgomery,PA,20068,404
75207,Dallas,Dallas,TX,7702,404
01702,Framingham,Middlesex,MA,39799,404
02492,Needham,Norfolk,MA,20571,404
98027,Issaquah,King,WA,30989,403
60193,Schaumburg,Cook,IL,39646,403
60622,Chicago,Cook,IL,53294,403
75056,The Colony,Denton,TX,60554,403
19035,Gladwyne,Montgomery,PA,3453,403
75050,Grand Prairie,Dallas,TX,43174,403
22039,Fairfax Station,Fairfax,VI,17598,402
22030,Fairfax,Fairfax City,VI,59332,402
98133,Seattle,King,WA,48650,402
98038,Maple Valley,King,WA,35904,402
20705,Beltsville,Prince Georges,MD,27663,402
60607,Chicago,Cook,IL,29293,402
19085,Villanova,Delaware,PA,8778,402
19123,Philadelphia,Philadelphia,PA,17351,402
19444,Lafayette Hill,Montgomery,PA,10890,402
98125,Seattle,King,WA,42981,401
80221,Denver,Adams,CO,42103,401
60647,Chicago,Cook,IL,87633,401
20852,Rockville,Montgomery,MD,46178,400
20895,Kensington,Montgomery,MD,19026,400
98359,Olalla,Kitsap,WA,5044,400
60070,Prospect Heights,Cook,IL,15908,400
19462,Plymouth Meeting,Montgomery,PA,15811,400
19031,Flourtown,Montgomery,PA,4618,400
01770,Sherborn,Middlesex,MA,4316,400
22152,Springfield,Fairfax,VI,30624,399
20904,Silver Spring,Montgomery,MD,55275,399
75081,Richardson,Dallas,TX,40265,399
75051,Grand Prairie,Dallas,TX,40923,399
19106,Philadelphia,Philadelphia,PA,12592,399
19126,Philadelphia,Philadelphia,PA,15656,399
20784,Hyattsville,Prince Georges,MD,30270,398
20783,Hyattsville,Prince Georges,MD,45302,398
60641,Chicago,Cook,IL,69880,398
20724,Laurel,Anne Arundel,MD,17513,398
19040,Hatboro,Montgomery,PA,20901,398
19079,Sharon Hill,Delaware,PA,9223,398
60632,Chicago,Cook,IL,89857,398
76040,Euless,Tarrant,TX,31519,398
20194,Reston,Fairfax,VI,12467,397
22303,Alexandria,Fairfax,VI,14558,397
22066,Great Falls,Fairfax,VI,17767,397
98029,Issaquah,King,WA,29250,397
19125,Philadelphia,Philadelphia,PA,25850,397
19018,Clifton Heights,Delaware,PA,23445,397
01778,Wayland,Middlesex,MA,14088,397
91761,Ontario,San Bernardino,CA,61425,396
20190,Reston,Fairfax,VI,19950,396
60464,Palos Park,Cook,IL,9662,396
19008,Broomall,Delaware,PA,20934,396
19012,Cheltenham,Montgomery,PA,6328,396
98020,Edmonds,Snohomish,WA,19447,395
94545,Hayward,Alameda,CA,32724,395
76021,Bedford,Tarrant,TX,35794,395
02467,Chestnut Hill,Middlesex,MA,22269,395
20191,Reston,Fairfax,VI,30181,394
20855,Derwood,Montgomery,MD,15287,394
19095,Wyncote,Montgomery,PA,7070,394
19075,Oreland,Montgomery,PA,7632,394
01701,Framingham,Middlesex,MA,32590,394
02135,Brighton,Suffolk,MA,44951,394
02478,Belmont,Middlesex,MA,26099,394
92656,Aliso Viejo,Orange,CA,52268,393
20910,Silver Spring,Montgomery,MD,44301,393
98337,Bremerton,Kitsap,WA,7168,393
20759,Fulton,Howard,MD,5311,393
08065,Palmyra,Burlington,NJ,7189,393
19034,Fort Washington,Montgomery,PA,5852,393
02482,Wellesley,Norfolk,MA,10855,393
94621,Oakland,Alameda,CA,35035,393
22310,Alexandria,Fairfax,VI,32380,393
02460,Newtonville,Middlesex,MA,9773,393
92691,Mission Viejo,Orange,CA,50839,392
98367,Port Orchard,Kitsap,WA,29826,392
60482,Worth,Cook,IL,10849,392
02453,Waltham,Middlesex,MA,29505,392
60192,Schaumburg,Cook,IL,15467,391
18954,Richboro,Bucks,PA,9453,391
75226,Dallas,Dallas,TX,4579,391
02481,Wellesley Hills,Norfolk,MA,16140,391
02493,Weston,Middlesex,MA,12112,391
22314,Alexandria,Alexandria City,VI,34378,390
20854,Potomac,Montgomery,MD,49189,390
80229,Denver,Adams,CO,55532,390
60630,Chicago,Cook,IL,56433,390
60608,Chicago,Cook,IL,80059,390
19137,Philadelphia,Philadelphia,PA,8347,390
94603,Oakland,Alameda,CA,35862,390
02459,Newton Center,Middlesex,MA,19012,390
19067,Morrisville,Bucks,PA,52689,389
94579,San Leandro,Alameda,CA,21883,389
20902,Silver Spring,Montgomery,MD,52908,389
19021,Croydon,Bucks,PA,10063,389
75082,Richardson,Dallas,TX,23483,389
75042,Garland,Dallas,TX,39183,389
75024,Plano,Collin,TX,43551,389
60453,Oak Lawn,Cook,IL,55966,389
02458,Newton,Middlesex,MA,12778,389
02472,Watertown,Middlesex,MA,35518,389
02451,Waltham,Middlesex,MA,18246,389
91764,Ontario,San Bernardino,CA,56677,388
22150,Springfield,Fairfax,VI,28905,388
80260,Denver,Adams,CO,34837,388
80030,Westminster,Adams,CO,15861,388
18940,Newtown,Bucks,PA,28915,388
60188,Carol Stream,Du Page,IL,42214,388
20708,Laurel,Prince Georges,MD,27843,388
76022,Bedford,Tarrant,TX,13495,388
75223,Dallas,Dallas,TX,14941,388
02445,Brookline,Norfolk,MA,21074,388
02134,Allston,Suffolk,MA,19907,388
92692,Mission Viejo,Orange,CA,46800,387
80640,Henderson,Adams,CO,12991,387
60456,Hometown,Cook,IL,4272,387
60439,Lemont,Du Page,IL,23435,387
19036,Glenolden,Delaware,PA,12894,387
19025,Dresher,Montgomery,PA,5861,387
02494,Needham Heights,Norfolk,MA,10399,387
60195,Schaumburg,Cook,IL,5020,386
60190,Winfield,Du Page,IL,11375,386
01721,Ashland,Middlesex,MA,17710,386
02452,Waltham,Middlesex,MA,14909,386
80005,Arvada,Jefferson,CO,28737,385
20906,Silver Spring,Montgomery,MD,70749,385
60067,Palatine,Cook,IL,37840,385
20769,Glenn Dale,Prince Georges,MD,6222,385
19153,Philadelphia,Philadelphia,PA,13006,385
98052,Redmond,King,WA,70245,384
98001,Auburn,King,WA,33699,384
19007,Bristol,Bucks,PA,20944,384
19056,Levittown,Bucks,PA,15249,384
19070,Morton,Delaware,PA,6924,384
19032,Folcroft,Delaware,PA,6627,384
75067,Lewisville,Denton,TX,68196,384
07927,Cedar Knolls,Morris,NJ,3814,384
02026,Dedham,Norfolk,MA,25265,384
01742,Concord,Middlesex,MA,19121,384
94619,Oakland,Alameda,CA,24112,383
20706,Lanham,Prince Georges,MD,43670,383
80233,Denver,Adams,CO,49875,383
80234,Denver,Adams,CO,28133,383
20832,Olney,Montgomery,MD,26437,383
98003,Federal Way,King,WA,49533,383
19030,Fairless Hills,Bucks,PA,11792,383
80220,Denver,Denver,CO,36483,383
20785,Hyattsville,Prince Georges,MD,38878,382
60194,Schaumburg,Cook,IL,19525,382
98047,Pacific,King,WA,7124,382
19054,Levittown,Bucks,PA,16180,382
60490,Bolingbrook,Will,IL,22158,382
75218,Dallas,Dallas,TX,22529,382
76006,Arlington,Tarrant,TX,24684,382
01746,Holliston,Middlesex,MA,14724,382
98422,Tacoma,Pierce,WA,21490,382
02215,Boston,Suffolk,MA,25770,382
02129,Charlestown,Suffolk,MA,19890,382
22307,Alexandria,Fairfax,VI,9902,381
22315,Alexandria,Fairfax,VI,29470,381
20743,Capitol Heights,Prince Georges,MD,37888,381
80205,Denver,Denver,CO,35054,381
80204,Denver,Denver,CO,34030,381
76011,Arlington,Tarrant,TX,22622,381
02030,Dover,Norfolk,MA,6044,381
01773,Lincoln,Middlesex,MA,4884,381
02132,West Roxbury,Suffolk,MA,27801,381
91321,Newhall,Los Angeles,CA,34014,380
22032,Fairfax,Fairfax,VI,31201,380
80219,Denver,Denver,CO,70638,380
98002,Auburn,King,WA,33468,380
75075,Plano,Collin,TX,38283,380
60609,Chicago,Cook,IL,60939,380
60629,Chicago,Cook,IL,110029,380
19422,Blue Bell,Montgomery,PA,18852,380
02461,Newton Highlands,Middlesex,MA,7084,380
01776,Sudbury,Middlesex,MA,19122,380
80203,Denver,Denver,CO,21392,379
75208,Dallas,Dallas,TX,29706,379
02466,Auburndale,Middlesex,MA,8929,379
02053,Medway,Norfolk,MA,13325,379
02155,Medford,Middlesex,MA,59735,379
02062,Norwood,Norfolk,MA,29306,379
02140,Cambridge,Middlesex,MA,21490,379
92688,Rancho Santa Margarita,Orange,CA,44832,378
94605,Oakland,Alameda,CA,43399,378
80021,Broomfield,Jefferson,CO,34097,378
98072,Woodinville,King,WA,23939,378
60440,Bolingbrook,Will,IL,52273,378
60090,Wheeling,Cook,IL,38553,378
19002,Ambler,Montgomery,PA,32241,378
75228,Dallas,Dallas,TX,73976,378
19074,Norwood,Delaware,PA,5893,378
76054,Hurst,Tarrant,TX,12280,378
02464,Newton Upper Falls,Middlesex,MA,3326,378
80020,Broomfield,Boulder,CO,50491,378
92694,Ladera Ranch,Orange,CA,29570,377
80238,Denver,Denver,CO,21632,377
85008,Phoenix,Maricopa,AZ,62340,377
02136,Hyde Park,Suffolk,MA,35213,377
02476,Arlington,Middlesex,MA,17426,377
02465,West Newton,Middlesex,MA,11814,377
02138,Cambridge,Middlesex,MA,38504,377
22153,Springfield,Fairfax,VI,31196,377
02116,Boston,Suffolk,MA,23157,377
02081,Walpole,Norfolk,MA,19904,377
30324,Atlanta,Fulton,GA,27806,376
80202,Denver,Denver,CO,15287,376
19057,Levittown,Bucks,PA,17449,376
08010,Beverly,Burlington,NJ,10983,376
19076,Prospect Park,Delaware,PA,6555,376
02090,Westwood,Norfolk,MA,16154,376
02468,Waban,Middlesex,MA,5623,376
01754,Maynard,Middlesex,MA,10754,376
02144,Somerville,Middlesex,MA,24818,376
02421,Lexington,Middlesex,MA,18622,376
94556,Moraga,Contra Costa,CA,16428,375
22015,Burke,Fairfax,VI,44523,375
80226,Denver,Jefferson,CO,33597,375
18929,Jamison,Bucks,PA,9570,375
60463,Palos Heights,Cook,IL,14798,375
75025,Plano,Collin,TX,53764,375
75023,Plano,Collin,TX,50431,375
08102,Camden,Camden,NJ,7639,375
02139,Cambridge,Middlesex,MA,38715,375
02145,Somerville,Middlesex,MA,28402,375
98026,Edmonds,Snohomish,WA,37995,374
85016,Phoenix,Maricopa,AZ,35930,374
85018,Phoenix,Maricopa,AZ,38473,374
60654,Chicago,Cook,IL,20022,374
02130,Jamaica Plain,Suffolk,MA,40749,374
02143,Somerville,Middlesex,MA,25327,374
94601,Oakland,Alameda,CA,53039,373
85015,Phoenix,Maricopa,AZ,41895,373
60652,Chicago,Cook,IL,43447,373
19073,Newtown Square,Delaware,PA,19763,373
75022,Flower Mound,Denton,TX,27201,373
02148,Malden,Middlesex,MA,60984,373
85040,Phoenix,Maricopa,AZ,35204,373
98014,Carnation,King,WA,6773,372
80022,Commerce City,Adams,CO,51863,372
30319,Atlanta,Dekalb,GA,43011,372
19055,Levittown,Bucks,PA,14032,372
60610,Chicago,Cook,IL,40548,372
60601,Chicago,Cook,IL,15083,372
75203,Dallas,Dallas,TX,17367,372
02120,Boston,Suffolk,MA,15188,372
02052,Medfield,Norfolk,MA,12841,372
98037,Lynnwood,Snohomish,WA,30485,372
30341,Atlanta,Dekalb,GA,32601,371
80232,Denver,Jefferson,CO,22705,371
94541,Hayward,Alameda,CA,65928,371
80214,Denver,Jefferson,CO,26711,371
19401,Norristown,Montgomery,PA,41897,371
02149,Everett,Middlesex,MA,46118,371
80241,Denver,Adams,CO,33638,370
18976,Warrington,Bucks,PA,20681,370
85251,Scottsdale,Maricopa,AZ,41102,370
60803,Alsip,Cook,IL,22405,370
20794,Jessup,Howard,MD,17939,370
02124,Boston,Suffolk,MA,56649,370
20850,Rockville,Montgomery,MD,53176,369
30308,Atlanta,Fulton,GA,18839,369
60053,Morton Grove,Cook,IL,23089,369
60636,Chicago,Cook,IL,30024,369
75210,Dallas,Dallas,TX,8673,369
08880,South Bound Brook,Somerset,NJ,4534,369
02032,East Walpole,Norfolk,MA,4194,369
02420,Lexington,Middlesex,MA,14718,369
02118,Boston,Suffolk,MA,28262,369
02474,Arlington,Middlesex,MA,27878,369
22033,Fairfax,Fairfax,VI,39478,368
30309,Atlanta,Fulton,GA,26526,368
94580,San Lorenzo,Alameda,CA,30488,368
94555,Fremont,Alameda,CA,38478,368
80216,Denver,Denver,CO,13662,368
85017,Phoenix,Maricopa,AZ,42656,368
21046,Columbia,Howard,MD,15655,368
60605,Chicago,Cook,IL,29060,368
06830,Greenwich,Fairfield,CT,25036,368
02141,Cambridge,Middlesex,MA,14522,368
02126,Mattapan,Suffolk,MA,29620,368
20745,Oxon Hill,Prince Georges,MD,27790,367
98036,Lynnwood,Snohomish,WA,40723,367
80004,Arvada,Jefferson,CO,36595,367
85014,Phoenix,Maricopa,AZ,27623,367
19454,North Wales,Montgomery,PA,28977,367
19033,Folsom,Delaware,PA,8826,367
02131,Roslindale,Suffolk,MA,34419,367
98023,Federal Way,King,WA,50201,367
22060,Fort Belvoir,Fairfax,VI,9489,366
20853,Rockville,Montgomery,MD,31061,366
80033,Wheat Ridge,Jefferson,CO,25755,366
80209,Denver,Denver,CO,25367,366
21029,Clarksville,Howard,MD,10895,366
75074,Plano,Collin,TX,52259,366
02142,Cambridge,Middlesex,MA,3676,366
01720,Acton,Middlesex,MA,22791,366
22306,Alexandria,Fairfax,VI,35425,365
94544,Hayward,Alameda,CA,79747,365
80212,Denver,Denver,CO,19552,365
30328,Atlanta,Fulton,GA,38648,365
60026,Glenview Nas,Cook,IL,14021,365
02121,Boston,Suffolk,MA,30159,365
60611,Chicago,Cook,IL,33224,365
60133,Hanover Park,Cook,IL,38113,364
60103,Bartlett,Cook,IL,41755,364
80007,Arvada,Jefferson,CO,13783,364
80206,Denver,Denver,CO,25066,364
80223,Denver,Denver,CO,19972,364
85009,Phoenix,Maricopa,AZ,51711,364
85012,Phoenix,Maricopa,AZ,7492,364
60618,Chicago,Cook,IL,94907,364
75052,Grand Prairie,Dallas,TX,95495,364
08850,Milltown,Middlesex,NJ,8373,364
02186,Milton,Norfolk,MA,27572,364
94606,Oakland,Alameda,CA,38220,363
60107,Streamwood,Cook,IL,39894,363
85281,Tempe,Maricopa,AZ,66833,363
85006,Phoenix,Maricopa,AZ,27206,363
76010,Arlington,Tarrant,TX,60097,363
02114,Boston,Suffolk,MA,13335,363
94602,Oakland,Alameda,CA,30162,362
80002,Arvada,Jefferson,CO,18877,362
80230,Denver,Denver,CO,9545,362
80246,Denver,Denver,CO,13433,362
80218,Denver,Denver,CO,19385,362
80215,Denver,Jefferson,CO,19487,362
60646,Chicago,Cook,IL,28569,362
75215,Dallas,Dallas,TX,17818,362
60805,Evergreen Park,Cook,IL,19479,362
02111,Boston,Suffolk,MA,7926,362
01730,Bedford,Middlesex,MA,14070,362
02021,Canton,Norfolk,MA,23369,362
20124,Clifton,Fairfax,VI,15114,361
30306,Atlanta,Fulton,GA,23973,361
80210,Denver,Denver,CO,37087,361
80207,Denver,Denver,CO,26706,361
20833,Brookeville,Montgomery,MD,7369,361
85257,Scottsdale,Maricopa,AZ,33392,361
20723,Laurel,Howard,MD,35411,361
60077,Skokie,Cook,IL,27626,361
75044,Garland,Dallas,TX,43292,361
02108,Boston,Suffolk,MA,4454,361
22308,Alexandria,Fairfax,VI,13610,360
80010,Aurora,Arapahoe,CO,42807,360
30084,Tucker,Dekalb,GA,38374,360
75041,Garland,Dallas,TX,30880,360
85042,Phoenix,Maricopa,AZ,47957,360
76053,Hurst,Tarrant,TX,30765,360
22309,Alexandria,Fairfax,VI,37464,359
20746,Suitland,Prince Georges,MD,27041,359
98332,Gig Harbor,Pierce,WA,18655,359
75034,Frisco,Collin,TX,108525,359
60025,Glenview,Cook,IL,40935,359
85028,Phoenix,Maricopa,AZ,19334,359
85034,Phoenix,Maricopa,AZ,5045,359
85004,Phoenix,Maricopa,AZ,7164,359
85041,Phoenix,Maricopa,AZ,62152,359
75224,Dallas,Dallas,TX,37592,359
01801,Woburn,Middlesex,MA,40359,359
30033,Decatur,Dekalb,GA,32847,359
02151,Revere,Suffolk,MA,53701,359
20171,Herndon,Fairfax,VI,51093,358
80222,Denver,Denver,CO,23287,358
80110,Englewood,Arapahoe,CO,22756,358
08518,Florence,Burlington,NJ,5402,358
85254,Scottsdale,Maricopa,AZ,47185,358
60462,Orland Park,Cook,IL,39784,358
60614,Chicago,Cook,IL,71954,358
60621,Chicago,Cook,IL,28018,358
19405,Bridgeport,Montgomery,PA,5250,358
19081,Swarthmore,Delaware,PA,9923,358
02150,Chelsea,Suffolk,MA,39983,358
01890,Winchester,Middlesex,MA,22738,358
98310,Bremerton,Kitsap,WA,20575,357
60563,Naperville,Du Page,IL,37705,357
20777,Highland,Howard,MD,3687,357
85007,Phoenix,Maricopa,AZ,14428,356
75233,Dallas,Dallas,TX,17280,356
08086,Thorofare,Gloucester,NJ,7642,356
19044,Horsham,Montgomery,PA,16206,356
60616,Chicago,Cook,IL,54197,356
02125,Boston,Suffolk,MA,34847,356
01803,Burlington,Middlesex,MA,27650,356
80224,Denver,Denver,CO,18941,355
85253,Paradise Valley,Maricopa,AZ,18811,355
60655,Chicago,Cook,IL,28569,355
85003,Phoenix,Maricopa,AZ,8499,355
08093,Westville,Gloucester,NJ,9310,355
94611,Oakland,Alameda,CA,38975,354
94618,Oakland,Alameda,CA,17252,354
94610,Oakland,Alameda,CA,31936,354
80227,Denver,Denver,CO,34878,354
94063,Redwood City,San Mateo,CA,34867,354
19078,Ridley Park,Delaware,PA,11562,354
01775,Stow,Middlesex,MA,7133,354
02119,Boston,Suffolk,MA,27818,354
02122,Boston,Suffolk,MA,24485,354
20748,Temple Hills,Prince Georges,MD,38904,353
30002,Avondale Estates,Dekalb,GA,6054,353
30317,Atlanta,Fulton,GA,13820,353
30305,Atlanta,Fulton,GA,24551,353
80236,Denver,Denver,CO,19230,353
19086,Wallingford,Delaware,PA,11746,353
02169,Quincy,Norfolk,MA,56523,353
94612,Oakland,Alameda,CA,15785,352
94501,Alameda,Alameda,CA,63821,352
80228,Denver,Jefferson,CO,34111,352
30326,Atlanta,Fulton,GA,6529,352
30329,Atlanta,Dekalb,GA,28383,352
20720,Bowie,Prince Georges,MD,22971,352
30338,Atlanta,Fulton,GA,35903,352
75013,Allen,Collin,TX,42629,352
85013,Phoenix,Maricopa,AZ,21028,352
60625,Chicago,Cook,IL,79444,352
76182,North Richland Hills,Tarrant,TX,31046,352
02180,Stoneham,Middlesex,MA,23223,352
20747,District Heights,Prince Georges,MD,40484,351
30360,Atlanta,Dekalb,GA,15856,351
60074,Palatine,Cook,IL,39217,351
18925,Furlong,Bucks,PA,6692,351
75094,Plano,Collin,TX,23239,351
19013,Chester,Delaware,PA,35134,351
08805,Bound Brook,Somerset,NJ,12253,351
19047,Langhorne,Bucks,PA,34479,351
20166,Sterling,Loudoun,VI,12236,350
60555,Warrenville,Du Page,IL,13273,350
30346,Atlanta,Dekalb,GA,4914,350
85032,Phoenix,Maricopa,AZ,73203,350
08031,Bellmawr,Camden,NJ,11398,350
19029,Essington,Delaware,PA,4013,350
92651,Laguna Beach,Orange,CA,24800,349
98024,Fall City,King,WA,6890,349
30307,Atlanta,Fulton,GA,20036,349
94502,Alameda,Alameda,CA,14701,349
30345,Atlanta,Dekalb,GA,25797,349
30340,Atlanta,Dekalb,GA,27796,349
20715,Bowie,Prince Georges,MD,27556,349
85260,Scottsdale,Maricopa,AZ,39861,349
60076,Skokie,Cook,IL,31788,349
85266,Scottsdale,Maricopa,AZ,13253,349
75216,Dallas,Dallas,TX,53327,349
08106,Audubon,Camden,NJ,9515,349
01741,Carlisle,Middlesex,MA,5224,349
02109,Boston,Suffolk,MA,4190,349
94609,Oakland,Alameda,CA,23726,348
08059,Mount Ephraim,Camden,NJ,5597,348
02113,Boston,Suffolk,MA,6966,348
07704,Fair Haven,Monmouth,NJ,5873,348
30076,Roswell,Fulton,GA,46742,348
02176,Melrose,Middlesex,MA,28113,348
20170,Herndon,Fairfax,VI,42690,347
80235,Denver,Denver,CO,8804,347
80239,Denver,Denver,CO,47829,347
80011,Aurora,Adams,CO,52172,347
60659,Chicago,Cook,IL,42735,347
02152,Winthrop,Suffolk,MA,18542,347
91730,Rancho Cucamonga,San Bernardino,CA,72407,346
98311,Bremerton,Kitsap,WA,27946,346
80231,Denver,Denver,CO,36861,346
85043,Phoenix,Maricopa,AZ,38704,346
85019,Phoenix,Maricopa,AZ,27813,346
60657,Chicago,Cook,IL,70958,346
76180,North Richland Hills,Tarrant,TX,37524,346
19333,Devon,Chester,PA,6911,346
02056,Norfolk,Norfolk,MA,11309,346
01906,Saugus,Essex,MA,28222,346
02067,Sharon,Norfolk,MA,18508,346
94607,Oakland,Alameda,CA,26823,345
30312,Atlanta,Fulton,GA,24782,345
30303,Atlanta,Fulton,GA,6628,345
30068,Marietta,Cobb,GA,32453,345
60467,Orland Park,Cook,IL,26861,345
19446,Lansdale,Montgomery,PA,56720,345
60712,Lincolnwood,Cook,IL,12434,345
76012,Arlington,Tarrant,TX,25719,345
75236,Dallas,Dallas,TX,18137,345
60540,Naperville,Du Page,IL,45187,344
30083,Stone Mountain,Dekalb,GA,57137,344
30350,Atlanta,Dekalb,GA,39075,344
85258,Scottsdale,Maricopa,AZ,25755,344
85250,Scottsdale,Maricopa,AZ,17688,344
60445,Midlothian,Cook,IL,25810,344
19094,Woodlyn,Delaware,PA,4060,344
01821,Billerica,Middlesex,MA,32797,344
02170,Quincy,Norfolk,MA,19848,344
91752,Mira Loma,Riverside,CA,35694,343
91377,Oak Park,Ventura,CA,13853,343
30316,Atlanta,Fulton,GA,33670,343
30021,Clarkston,Dekalb,GA,23493,343
30092,Norcross,Gwinnett,GA,36034,343
60203,Evanston,Cook,IL,4397,343
75048,Sachse,Dallas,TX,25598,343
60613,Chicago,Cook,IL,50761,343
85282,Tempe,Maricopa,AZ,55664,343
19406,King Of Prussia,Montgomery,PA,25105,343
01752,Marlborough,Middlesex,MA,39736,343
02038,Franklin,Norfolk,MA,33256,343
20744,Fort Washington,Prince Georges,MD,54925,342
98346,Kingston,Kitsap,WA,9964,342
20882,Gaithersburg,Montgomery,MD,13988,342
85021,Phoenix,Maricopa,AZ,43378,342
08036,Hainesport,Burlington,NJ,5917,342
08836,Martinsville,Somerset,NJ,3776,342
01772,Southborough,Worcester,MA,9526,342
80128,Littleton,Jefferson,CO,36435,342
91381,Stevenson Ranch,Los Angeles,CA,19390,341
30327,Atlanta,Fulton,GA,22893,341
94578,San Leandro,Alameda,CA,41865,341
30067,Marietta,Cobb,GA,46536,341
19403,Norristown,Montgomery,PA,46592,341
75040,Garland,Dallas,TX,62417,341
94596,Walnut Creek,Contra Costa,CA,21700,341
80012,Aurora,Arapahoe,CO,52588,340
76118,Fort Worth,Tarrant,TX,16378,340
19022,Crum Lynne,Delaware,PA,3696,340
02184,Braintree,Norfolk,MA,37220,340
02171,Quincy,Norfolk,MA,17836,340
01880,Wakefield,Middlesex,MA,26720,340
30032,Decatur,Dekalb,GA,47980,339
80237,Denver,Denver,CO,21890,339
60062,Northbrook,Cook,IL,40686,339
85031,Phoenix,Maricopa,AZ,33886,339
02368,Randolph,Norfolk,MA,34686,339
91784,Upland,San Bernardino,CA,26090,338
94563,Orinda,Contra Costa,CA,19644,338
30071,Norcross,Gwinnett,GA,25386,338
80017,Aurora,Arapahoe,CO,37668,338
80014,Aurora,Arapahoe,CO,39333,338
94065,Redwood City,San Mateo,CA,12461,338
60640,Chicago,Cook,IL,69363,338
75227,Dallas,Dallas,TX,59924,338
08035,Haddon Heights,Camden,NJ,7656,338
02210,Boston,Suffolk,MA,3715,338
20164,Sterling,Loudoun,VI,41684,337
30314,Atlanta,Fulton,GA,24974,337
30313,Atlanta,Fulton,GA,11415,337
94577,San Leandro,Alameda,CA,47682,337
30075,Roswell,Fulton,GA,53779,337
20755,Fort George G Meade,Anne Arundel,MD,10873,337
08066,Paulsboro,Gloucester,NJ,8402,337
94704,Berkeley,Alameda,CA,29597,337
01867,Reading,Middlesex,MA,25077,337
94595,Walnut Creek,Contra Costa,CA,18117,336
30310,Atlanta,Fulton,GA,28664,336
80111,Englewood,Arapahoe,CO,33256,336
30093,Norcross,Gwinnett,GA,56290,336
85283,Tempe,Maricopa,AZ,51495,336
76120,Fort Worth,Tarrant,TX,18125,336
76014,Arlington,Tarrant,TX,35096,336
19015,Brookhaven,Delaware,PA,16809,336
48152,Livonia,Wayne,MI,31018,336
80013,Aurora,Arapahoe,CO,74105,335
80602,Brighton,Adams,CO,36262,335
60565,Naperville,Du Page,IL,40560,335
75065,Lake Dallas,Denton,TX,12640,335
80120,Littleton,Arapahoe,CO,31891,335
85051,Phoenix,Maricopa,AZ,45313,335
20707,Laurel,Prince Georges,MD,32798,335
06831,Greenwich,Fairfield,CT,14588,335
01862,North Billerica,Middlesex,MA,10623,335
02072,Stoughton,Norfolk,MA,28639,335
30062,Marietta,Cobb,GA,65801,334
80122,Littleton,Arapahoe,CO,33117,334
80123,Littleton,Jefferson,CO,47821,334
60093,Winnetka,Cook,IL,19409,334
60091,Wilmette,Cook,IL,27165,334
07420,Haskell,Passaic,NJ,5148,334
02127,Boston,Suffolk,MA,37634,334
08554,Roebling,Burlington,NJ,4123,334
98407,Tacoma,Pierce,WA,21439,333
60620,Chicago,Cook,IL,67711,333
94597,Walnut Creek,Contra Costa,CA,23108,332
80121,Littleton,Arapahoe,CO,19217,332
08048,Lumberton,Burlington,NJ,12195,332
60661,Chicago,Cook,IL,10354,332
75043,Garland,Dallas,TX,62601,332
21045,Columbia,Howard,MD,40365,332
94549,Lafayette,Contra Costa,CA,29795,331
94705,Berkeley,Alameda,CA,13527,331
20716,Bowie,Prince Georges,MD,22237,331
60615,Chicago,Cook,IL,40590,331
80015,Aurora,Arapahoe,CO,69487,330
55454,Minneapolis,Hennepin,MN,10024,330
85201,Mesa,Maricopa,AZ,54110,329
60202,Evanston,Cook,IL,32703,329
01905,Lynn,Essex,MA,24580,329
20877,Gaithersburg,Montgomery,MD,38423,328
75002,Allen,Collin,TX,71253,328
33021,Hollywood,Broward,FL,49941,328
60626,Chicago,Cook,IL,50544,328
21044,Columbia,Howard,MD,44256,328
19312,Berwyn,Chester,PA,11618,328
08007,Barrington,Camden,NJ,4899,328
60653,Chicago,Cook,IL,33154,328
55416,Minneapolis,Hennepin,MN,33036,328
01887,Wilmington,Middlesex,MA,23377,328
55113,St. Paul,Ramsey,MN,41771,327
22079,Lorton,Fairfax,VI,36559,327
60185,West Chicago,Du Page,IL,36100,327
94566,Pleasanton,Alameda,CA,45893,327
33009,Hallandale,Broward,FL,41578,327
08090,Wenonah,Gloucester,NJ,8087,327
08078,Runnemede,Camden,NJ,8318,327
01719,Boxborough,Middlesex,MA,5561,327
55104,St. Paul,Ramsey,MN,45278,326
94070,San Carlos,San Mateo,CA,31074,326
85301,Glendale,Maricopa,AZ,68579,326
85035,Phoenix,Maricopa,AZ,59660,326
08049,Magnolia,Camden,NJ,5335,326
92677,Laguna Niguel,Orange,CA,66314,325
30060,Marietta,Cobb,GA,40290,325
98012,Bothell,Snohomish,WA,67427,325
30022,Alpharetta,Fulton,GA,68945,325
60201,Evanston,Cook,IL,41884,325
08027,Gibbstown,Gloucester,NJ,4831,325
02191,Weymouth,Norfolk,MA,8360,325
02188,Weymouth,Norfolk,MA,15831,325
55423,Minneapolis,Hennepin,MN,36300,325
55414,Minneapolis,Hennepin,MN,35925,324
20616,Bryans Road,Charles,MD,6389,324
98092,Auburn,King,WA,47824,324
98403,Tacoma,Pierce,WA,8130,324
80403,Golden,Jefferson,CO,20499,324
80127,Littleton,Jefferson,CO,45304,324
94404,San Mateo,San Mateo,CA,36985,324
21114,Crofton,Anne Arundel,MD,27303,324
75217,Dallas,Dallas,TX,89163,324
33020,Hollywood,Broward,FL,45147,324
75150,Mesquite,Dallas,TX,60671,324
92503,Riverside,Riverside,CA,95551,323
55407,Minneapolis,Hennepin,MN,40980,323
55415,Minneapolis,Hennepin,MN,4815,323
30066,Marietta,Cobb,GA,55937,323
60022,Glencoe,Cook,IL,8471,323
94061,Redwood City,San Mateo,CA,39023,323
60472,Robbins,Cook,IL,4904,323
60660,Chicago,Cook,IL,44498,323
33056,Opa Locka,Miami-Dade,FL,36110,323
08884,Spotswood,Middlesex,NJ,8269,323
92675,San Juan Capistrano,Orange,CA,38803,322
55408,Minneapolis,Hennepin,MN,31731,322
60089,Buffalo Grove,Lake,IL,41014,322
85259,Scottsdale,Maricopa,AZ,23364,322
08835,Manville,Somerset,NJ,10230,322
08097,Woodbury Heights,Gloucester,NJ,3329,322
02322,Avon,Norfolk,MA,4500,322
91701,Rancho Cucamonga,San Bernardino,CA,39461,321
55424,Minneapolis,Hennepin,MN,9966,321
55411,Minneapolis,Hennepin,MN,31183,321
20721,Bowie,Prince Georges,MD,29730,321
18901,Doylestown,Bucks,PA,27851,321
85210,Mesa,Maricopa,AZ,41073,321
76112,Fort Worth,Tarrant,TX,42572,321
76015,Arlington,Tarrant,TX,16961,321
55419,Minneapolis,Hennepin,MN,27966,320
55101,St. Paul,Ramsey,MN,7743,320
94546,Castro Valley,Alameda,CA,44378,320
85022,Phoenix,Maricopa,AZ,51920,320
85033,Phoenix,Maricopa,AZ,64832,320
85202,Mesa,Maricopa,AZ,40364,320
19426,Collegeville,Montgomery,PA,40720,320
33054,Opa Locka,Miami-Dade,FL,31797,320
76013,Arlington,Tarrant,TX,34203,320
75116,Duncanville,Dallas,TX,19867,320
48154,Livonia,Wayne,MI,37293,320
01851,Lowell,Middlesex,MA,30686,320
55117,St. Paul,Ramsey,MN,45653,319
55106,St. Paul,Ramsey,MN,58771,319
55401,Minneapolis,Hennepin,MN,10238,319
55120,St. Paul,Dakota,MN,4495,319
55406,Minneapolis,Hennepin,MN,33563,319
91301,Agoura Hills,Los Angeles,CA,26334,319
20151,Chantilly,Fairfax,VI,23068,319
94588,Pleasanton,Alameda,CA,37253,319
75089,Rowlett,Dallas,TX,36324,319
75249,Dallas,Dallas,TX,17649,319
08083,Somerdale,Camden,NJ,9489,319
48335,Farmington,Oakland,MI,22998,319
48240,Redford,Wayne,MI,16978,319
02343,Holbrook,Norfolk,MA,10423,319
55426,Minneapolis,Hennepin,MN,26339,318
94703,Berkeley,Alameda,CA,21697,318
20165,Sterling,Loudoun,VI,31912,318
30088,Stone Mountain,Dekalb,GA,30132,318
30047,Lilburn,Gwinnett,GA,65937,318
85203,Mesa,Maricopa,AZ,39797,318
33026,Hollywood,Broward,FL,31891,318
60643,Chicago,Cook,IL,48887,318
33328,Fort Lauderdale,Broward,FL,29626,318
48336,Farmington,Oakland,MI,25913,318
55439,Minneapolis,Hennepin,MN,9072,317
55418,Minneapolis,Hennepin,MN,30305,317
55422,Minneapolis,Hennepin,MN,29837,317
55427,Minneapolis,Hennepin,MN,22646,317
55108,St. Paul,Ramsey,MN,15795,317
94702,Berkeley,Alameda,CA,16860,317
33028,Hollywood,Broward,FL,26848,317
33304,Fort Lauderdale,Broward,FL,18351,317
08029,Glendora,Camden,NJ,4871,317
01908,Nahant,Essex,MA,3502,317
02356,North Easton,Bristol,MA,13312,317
55428,Minneapolis,Hennepin,MN,31323,317
98275,Mukilteo,Snohomish,WA,21336,316
85302,Glendale,Maricopa,AZ,40186,316
85213,Mesa,Maricopa,AZ,36916,316
33055,Opa Locka,Miami-Dade,FL,40883,316
33169,Miami,Miami-Dade,FL,41626,316
19440,Hatfield,Montgomery,PA,19350,316
60637,Chicago,Cook,IL,47300,316
55404,Minneapolis,Hennepin,MN,26963,315
55116,St. Paul,Ramsey,MN,24809,315
55105,St. Paul,Ramsey,MN,26545,315
55413,Minneapolis,Hennepin,MN,14261,315
80112,Englewood,Arapahoe,CO,34092,315
85054,Phoenix,Maricopa,AZ,7785,315
33179,Miami,Miami-Dade,FL,44341,315
33015,Hialeah,Miami-Dade,FL,67191,315
19301,Paoli,Chester,PA,6375,315
33025,Hollywood,Broward,FL,73428,315
60452,Oak Forest,Cook,IL,28008,315
18914,Chalfont,Bucks,PA,21182,315
48331,Farmington,Oakland,MI,21372,315
55417,Minneapolis,Hennepin,MN,26593,314
55410,Minneapolis,Hennepin,MN,20820,314
55103,St. Paul,Ramsey,MN,14062,314
55102,St. Paul,Ramsey,MN,18633,314
20774,Upper Marlboro,Prince Georges,MD,47165,314
30080,Smyrna,Cobb,GA,57067,314
30096,Duluth,Gwinnett,GA,68691,314
21054,Gambrills,Anne Arundel,MD,11199,314
75232,Dallas,Dallas,TX,31453,314
33312,Fort Lauderdale,Broward,FL,55298,314
19014,Aston,Delaware,PA,20900,314
01824,Chelmsford,Middlesex,MA,25754,314
02035,Foxboro,Norfolk,MA,17727,314
55118,St. Paul,Dakota,MN,28318,313
55343,Hopkins,Hennepin,MN,25245,313
55421,Minneapolis,Anoka,MN,28582,313
94706,Albany,Alameda,CA,21218,313
94709,Berkeley,Alameda,CA,11951,313
80027,Louisville,Boulder,CO,34030,313
80601,Brighton,Adams,CO,40766,313
94560,Newark,Alameda,CA,47171,313
80129,Littleton,Douglas,CO,31302,313
80018,Aurora,Arapahoe,CO,13397,313
33023,Hollywood,Broward,FL,73973,313
33024,Hollywood,Broward,FL,76508,313
33316,Fort Lauderdale,Broward,FL,9736,313
08051,Mantua,Gloucester,NJ,10306,313
02043,Hingham,Plymouth,MA,23652,313
55425,Minneapolis,Hennepin,MN,10737,312
55412,Minneapolis,Hennepin,MN,23631,312
55409,Minneapolis,Hennepin,MN,11926,312
94708,Berkeley,Alameda,CA,11394,312
98204,Everett,Snohomish,WA,42364,312
30339,Atlanta,Fulton,GA,23960,312
94401,San Mateo,San Mateo,CA,36001,312
30035,Decatur,Dekalb,GA,23223,312
60015,Deerfield,Lake,IL,27529,312
85256,Scottsdale,Maricopa,AZ,6173,312
33027,Hollywood,Broward,FL,60679,312
33168,Miami,Miami-Dade,FL,27414,312
07924,Bernardsville,Somerset,NJ,7544,312
33004,Dania,Broward,FL,16082,312
33314,Fort Lauderdale,Broward,FL,27261,312
01904,Lynn,Essex,MA,17294,312
01876,Tewksbury,Middlesex,MA,30878,312
07760,Rumson,Monmouth,NJ,8704,312
01852,Lowell,Middlesex,MA,35532,312
33324,Fort Lauderdale,Broward,FL,49045,312
33325,Fort Lauderdale,Broward,FL,29369,312
90265,Malibu,Los Angeles,CA,17954,311
80126,Littleton,Douglas,CO,43356,311
33162,Miami,Miami-Dade,FL,47123,311
60619,Chicago,Cook,IL,61207,311
33147,Miami,Miami-Dade,FL,47811,311
55121,St. Paul,Dakota,MN,8954,310
55112,St. Paul,Ramsey,MN,46009,310
55405,Minneapolis,Hennepin,MN,15942,310
55436,Minneapolis,Hennepin,MN,13444,310
20735,Clinton,Prince Georges,MD,38220,310
30008,Marietta,Cobb,GA,33637,310
75035,Frisco,Collin,TX,75485,310
94536,Fremont,Alameda,CA,74837,310
21076,Hanover,Anne Arundel,MD,17442,310
33315,Fort Lauderdale,Broward,FL,13801,310
07403,Bloomingdale,Passaic,NJ,8009,310
01864,North Reading,Middlesex,MA,15581,310
85303,Glendale,Maricopa,AZ,35142,310
02048,Mansfield,Bristol,MA,23947,310
55107,St. Paul,Ramsey,MN,14279,309
55435,Minneapolis,Hennepin,MN,13965,309
76148,Fort Worth,Tarrant,TX,23993,309
08084,Stratford,Camden,NJ,6971,309
33180,Miami,Miami-Dade,FL,32441,309
60406,Blue Island,Cook,IL,25338,309
48127,Dearborn Heights,Wayne,MI,35747,309
01902,Lynn,Essex,MA,49641,309
94107,San Francisco,San Francisco,CA,31461,309
55109,St. Paul,Ramsey,MN,34148,309
55430,Minneapolis,Hennepin,MN,22546,308
55403,Minneapolis,Hennepin,MN,16784,308
94710,Berkeley,Alameda,CA,7893,308
94507,Alamo,Contra Costa,CA,15105,308
30087,Stone Mountain,Dekalb,GA,39586,308
98329,Gig Harbor,Pierce,WA,11493,308
75098,Wylie,Dallas,TX,56376,308
33161,Miami,Miami-Dade,FL,56130,308
08056,Mickleton,Gloucester,NJ,4841,308
02189,Weymouth,Norfolk,MA,15296,308
91737,Rancho Cucamonga,San Bernardino,CA,25154,307
55441,Minneapolis,Hennepin,MN,18405,307
20120,Centreville,Fairfax,VI,41312,307
98370,Poulsbo,Kitsap,WA,31278,307
19355,Malvern,Chester,PA,26778,307
08869,Raritan,Somerset,NJ,7865,307
33311,Fort Lauderdale,Broward,FL,76073,307
33301,Fort Lauderdale,Broward,FL,14988,307
33317,Fort Lauderdale,Broward,FL,38427,307
33019,Hollywood,Broward,FL,13729,307
06878,Riverside,Fairfield,CT,8112,307
02190,Weymouth,Norfolk,MA,17247,307